<?xml version="1.0" encoding="UTF-8"?>
<gpx creator="https://gpx.studio" version="1.1" xmlns="http://www.topografix.com/GPX/1/1" xmlns:xsi="http://www.w3.org/2001/XMLSchema-instance" xsi:schemaLocation="http://www.topografix.com/GPX/1/1 http://www.topografix.com/GPX/1/1/gpx.xsd http://www.garmin.com/xmlschemas/GpxExtensions/v3 http://www.garmin.com/xmlschemas/GpxExtensionsv3.xsd http://www.garmin.com/xmlschemas/TrackPointExtension/v1 http://www.garmin.com/xmlschemas/TrackPointExtensionv1.xsd http://www.garmin.com/xmlschemas/PowerExtension/v1 http://www.garmin.com/xmlschemas/PowerExtensionv1.xsd http://www.topografix.com/GPX/gpx_style/0/2 http://www.topografix.com/GPX/gpx_style/0/2/gpx_style.xsd" xmlns:gpxtpx="http://www.garmin.com/xmlschemas/TrackPointExtension/v1" xmlns:gpxx="http://www.garmin.com/xmlschemas/GpxExtensions/v3" xmlns:gpxpx="http://www.garmin.com/xmlschemas/PowerExtension/v1" xmlns:gpx_style="http://www.topografix.com/GPX/gpx_style/0/2">
  <metadata>
    <name>New file 1</name>
    <author>
      <name>gpx.studio</name>
      <link href="https://gpx.studio"/>
    </author>
  </metadata>
  <trk>
    <name>New file 1</name>
    <trkseg>
      <trkpt lat="45.195584" lon="5.672534">
        <ele>206</ele>
      </trkpt>
      <trkpt lat="45.195556" lon="5.672442">
        <ele>206</ele>
      </trkpt>
      <trkpt lat="45.195652" lon="5.672293">
        <ele>206</ele>
      </trkpt>
      <trkpt lat="45.195687" lon="5.672193">
        <ele>206</ele>
      </trkpt>
      <trkpt lat="45.195814" lon="5.671793">
        <ele>205</ele>
      </trkpt>
      <trkpt lat="45.195811" lon="5.671684">
        <ele>205</ele>
      </trkpt>
      <trkpt lat="45.195749" lon="5.671518">
        <ele>205</ele>
      </trkpt>
      <trkpt lat="45.195652" lon="5.671009">
        <ele>205.09</ele>
      </trkpt>
      <trkpt lat="45.195595" lon="5.670883">
        <ele>205.23</ele>
      </trkpt>
      <trkpt lat="45.195491" lon="5.670713">
        <ele>205.38</ele>
      </trkpt>
      <trkpt lat="45.195555" lon="5.670502">
        <ele>205.02</ele>
      </trkpt>
      <trkpt lat="45.195663" lon="5.670474">
        <ele>205.91</ele>
      </trkpt>
      <trkpt lat="45.195627" lon="5.669973">
        <ele>206</ele>
      </trkpt>
      <trkpt lat="45.195594" lon="5.66931">
        <ele>206</ele>
      </trkpt>
      <trkpt lat="45.19531" lon="5.668589">
        <ele>207</ele>
      </trkpt>
      <trkpt lat="45.195227" lon="5.668396">
        <ele>207</ele>
      </trkpt>
      <trkpt lat="45.195196" lon="5.668349">
        <ele>207</ele>
      </trkpt>
      <trkpt lat="45.195073" lon="5.668247">
        <ele>207.54</ele>
      </trkpt>
      <trkpt lat="45.195031" lon="5.6682">
        <ele>207.83</ele>
      </trkpt>
      <trkpt lat="45.19495" lon="5.668078">
        <ele>209.06</ele>
      </trkpt>
      <trkpt lat="45.194923" lon="5.667934">
        <ele>210.45</ele>
      </trkpt>
      <trkpt lat="45.194904" lon="5.667751">
        <ele>211.95</ele>
      </trkpt>
      <trkpt lat="45.195158" lon="5.667416">
        <ele>209.8</ele>
      </trkpt>
      <trkpt lat="45.19521" lon="5.667394">
        <ele>209.35</ele>
      </trkpt>
      <trkpt lat="45.195455" lon="5.667348">
        <ele>207.83</ele>
      </trkpt>
      <trkpt lat="45.195773" lon="5.66724">
        <ele>208</ele>
      </trkpt>
      <trkpt lat="45.195985" lon="5.667136">
        <ele>208.01</ele>
      </trkpt>
      <trkpt lat="45.196209" lon="5.666943">
        <ele>209</ele>
      </trkpt>
      <trkpt lat="45.196377" lon="5.666753">
        <ele>209</ele>
      </trkpt>
      <trkpt lat="45.196483" lon="5.666651">
        <ele>209</ele>
      </trkpt>
      <trkpt lat="45.196573" lon="5.666607">
        <ele>209.47</ele>
      </trkpt>
      <trkpt lat="45.196879" lon="5.66644">
        <ele>210.06</ele>
      </trkpt>
      <trkpt lat="45.196933" lon="5.666451">
        <ele>209.61</ele>
      </trkpt>
      <trkpt lat="45.1971" lon="5.666351">
        <ele>209.58</ele>
      </trkpt>
      <trkpt lat="45.197111" lon="5.666312">
        <ele>209.81</ele>
      </trkpt>
      <trkpt lat="45.19715" lon="5.666255">
        <ele>209.85</ele>
      </trkpt>
      <trkpt lat="45.197216" lon="5.6662">
        <ele>209.61</ele>
      </trkpt>
      <trkpt lat="45.197423" lon="5.666061">
        <ele>209</ele>
      </trkpt>
      <trkpt lat="45.197542" lon="5.665981">
        <ele>209</ele>
      </trkpt>
      <trkpt lat="45.19768" lon="5.665857">
        <ele>209</ele>
      </trkpt>
      <trkpt lat="45.197846" lon="5.665737">
        <ele>209</ele>
      </trkpt>
      <trkpt lat="45.198098" lon="5.665599">
        <ele>209.9</ele>
      </trkpt>
      <trkpt lat="45.198544" lon="5.66542">
        <ele>209.31</ele>
      </trkpt>
      <trkpt lat="45.198959" lon="5.665319">
        <ele>208</ele>
      </trkpt>
      <trkpt lat="45.199092" lon="5.665358">
        <ele>208</ele>
      </trkpt>
      <trkpt lat="45.199438" lon="5.665178">
        <ele>207.38</ele>
      </trkpt>
      <trkpt lat="45.199362" lon="5.664705">
        <ele>213.13</ele>
      </trkpt>
      <trkpt lat="45.199342" lon="5.664605">
        <ele>215.84</ele>
      </trkpt>
      <trkpt lat="45.199323" lon="5.664556">
        <ele>217.6</ele>
      </trkpt>
      <trkpt lat="45.199153" lon="5.664365">
        <ele>225.38</ele>
      </trkpt>
      <trkpt lat="45.199061" lon="5.664229">
        <ele>230.3</ele>
      </trkpt>
      <trkpt lat="45.198991" lon="5.664169">
        <ele>232.53</ele>
      </trkpt>
      <trkpt lat="45.198974" lon="5.664134">
        <ele>234.02</ele>
      </trkpt>
      <trkpt lat="45.199015" lon="5.664061">
        <ele>237.74</ele>
      </trkpt>
      <trkpt lat="45.199045" lon="5.663966">
        <ele>243.02</ele>
      </trkpt>
      <trkpt lat="45.199105" lon="5.66384">
        <ele>251.18</ele>
      </trkpt>
      <trkpt lat="45.199197" lon="5.663741">
        <ele>258.09</ele>
      </trkpt>
      <trkpt lat="45.199366" lon="5.663503">
        <ele>273.88</ele>
      </trkpt>
      <trkpt lat="45.199442" lon="5.663448">
        <ele>277.47</ele>
      </trkpt>
      <trkpt lat="45.199467" lon="5.663394">
        <ele>281.27</ele>
      </trkpt>
      <trkpt lat="45.199465" lon="5.663189">
        <ele>290.59</ele>
      </trkpt>
      <trkpt lat="45.199564" lon="5.662952">
        <ele>298.14</ele>
      </trkpt>
      <trkpt lat="45.199577" lon="5.66285">
        <ele>301.64</ele>
      </trkpt>
      <trkpt lat="45.199612" lon="5.66275">
        <ele>305.39</ele>
      </trkpt>
      <trkpt lat="45.199612" lon="5.662644">
        <ele>309.48</ele>
      </trkpt>
      <trkpt lat="45.199586" lon="5.662559">
        <ele>313.88</ele>
      </trkpt>
      <trkpt lat="45.199599" lon="5.662319">
        <ele>323.22</ele>
      </trkpt>
      <trkpt lat="45.199578" lon="5.662295">
        <ele>324.9</ele>
      </trkpt>
      <trkpt lat="45.199448" lon="5.662356">
        <ele>329.67</ele>
      </trkpt>
      <trkpt lat="45.19939" lon="5.662338">
        <ele>333.44</ele>
      </trkpt>
      <trkpt lat="45.199362" lon="5.662287">
        <ele>336.6</ele>
      </trkpt>
      <trkpt lat="45.199378" lon="5.662155">
        <ele>339.93</ele>
      </trkpt>
      <trkpt lat="45.199359" lon="5.662072">
        <ele>343.18</ele>
      </trkpt>
      <trkpt lat="45.19936" lon="5.661959">
        <ele>345.77</ele>
      </trkpt>
      <trkpt lat="45.199308" lon="5.661862">
        <ele>349.45</ele>
      </trkpt>
      <trkpt lat="45.199305" lon="5.661773">
        <ele>350.86</ele>
      </trkpt>
      <trkpt lat="45.199272" lon="5.661625">
        <ele>354.75</ele>
      </trkpt>
      <trkpt lat="45.199168" lon="5.661455">
        <ele>359.26</ele>
      </trkpt>
      <trkpt lat="45.199066" lon="5.66133">
        <ele>360.79</ele>
      </trkpt>
      <trkpt lat="45.198997" lon="5.661227">
        <ele>362.49</ele>
      </trkpt>
      <trkpt lat="45.198843" lon="5.661058">
        <ele>365.92</ele>
      </trkpt>
      <trkpt lat="45.198816" lon="5.660912">
        <ele>368.88</ele>
      </trkpt>
      <trkpt lat="45.198713" lon="5.660749">
        <ele>372.77</ele>
      </trkpt>
      <trkpt lat="45.198522" lon="5.66069">
        <ele>375.5</ele>
      </trkpt>
      <trkpt lat="45.198467" lon="5.660645">
        <ele>376.98</ele>
      </trkpt>
      <trkpt lat="45.198412" lon="5.660531">
        <ele>380.51</ele>
      </trkpt>
      <trkpt lat="45.198339" lon="5.660464">
        <ele>383.06</ele>
      </trkpt>
      <trkpt lat="45.198254" lon="5.660421">
        <ele>385.01</ele>
      </trkpt>
      <trkpt lat="45.198208" lon="5.66033">
        <ele>387.91</ele>
      </trkpt>
      <trkpt lat="45.198115" lon="5.660081">
        <ele>396.1</ele>
      </trkpt>
      <trkpt lat="45.198042" lon="5.659989">
        <ele>399.68</ele>
      </trkpt>
      <trkpt lat="45.19792" lon="5.659808">
        <ele>407.49</ele>
      </trkpt>
      <trkpt lat="45.197907" lon="5.659776">
        <ele>408.9</ele>
      </trkpt>
      <trkpt lat="45.197863" lon="5.659755">
        <ele>410.43</ele>
      </trkpt>
      <trkpt lat="45.197829" lon="5.659708">
        <ele>412.55</ele>
      </trkpt>
      <trkpt lat="45.197787" lon="5.659672">
        <ele>414.55</ele>
      </trkpt>
      <trkpt lat="45.197778" lon="5.65957">
        <ele>418.99</ele>
      </trkpt>
      <trkpt lat="45.197743" lon="5.659485">
        <ele>423.31</ele>
      </trkpt>
      <trkpt lat="45.197698" lon="5.659453">
        <ele>425.93</ele>
      </trkpt>
      <trkpt lat="45.197509" lon="5.659424">
        <ele>433.32</ele>
      </trkpt>
      <trkpt lat="45.197474" lon="5.65941">
        <ele>434.94</ele>
      </trkpt>
      <trkpt lat="45.197456" lon="5.659336">
        <ele>438.93</ele>
      </trkpt>
      <trkpt lat="45.197428" lon="5.659108">
        <ele>451.35</ele>
      </trkpt>
      <trkpt lat="45.197438" lon="5.659009">
        <ele>456.59</ele>
      </trkpt>
      <trkpt lat="45.197477" lon="5.658945">
        <ele>459.02</ele>
      </trkpt>
      <trkpt lat="45.197492" lon="5.658805">
        <ele>466.55</ele>
      </trkpt>
      <trkpt lat="45.197496" lon="5.658681">
        <ele>474.12</ele>
      </trkpt>
      <trkpt lat="45.197522" lon="5.658605">
        <ele>478.84</ele>
      </trkpt>
      <trkpt lat="45.197531" lon="5.658544">
        <ele>482.76</ele>
      </trkpt>
      <trkpt lat="45.197511" lon="5.65849">
        <ele>492.46</ele>
      </trkpt>
      <trkpt lat="45.197578" lon="5.658499">
        <ele>487.57</ele>
      </trkpt>
      <trkpt lat="45.197642" lon="5.658482">
        <ele>488.1</ele>
      </trkpt>
      <trkpt lat="45.197766" lon="5.658364">
        <ele>497.58</ele>
      </trkpt>
      <trkpt lat="45.197812" lon="5.658348">
        <ele>499.77</ele>
      </trkpt>
      <trkpt lat="45.197815" lon="5.658277">
        <ele>509.65</ele>
      </trkpt>
      <trkpt lat="45.197829" lon="5.658207">
        <ele>518.15</ele>
      </trkpt>
      <trkpt lat="45.197861" lon="5.658148">
        <ele>521.34</ele>
      </trkpt>
      <trkpt lat="45.197898" lon="5.658104">
        <ele>522.65</ele>
      </trkpt>
      <trkpt lat="45.197939" lon="5.658099">
        <ele>519.82</ele>
      </trkpt>
      <trkpt lat="45.197945" lon="5.658027">
        <ele>524.88</ele>
      </trkpt>
      <trkpt lat="45.197904" lon="5.657904">
        <ele>537.54</ele>
      </trkpt>
      <trkpt lat="45.197945" lon="5.657887">
        <ele>534.73</ele>
      </trkpt>
      <trkpt lat="45.197991" lon="5.657846">
        <ele>533.94</ele>
      </trkpt>
      <trkpt lat="45.198021" lon="5.657785">
        <ele>537.26</ele>
      </trkpt>
      <trkpt lat="45.198034" lon="5.657727">
        <ele>540.56</ele>
      </trkpt>
      <trkpt lat="45.198078" lon="5.657719">
        <ele>538.23</ele>
      </trkpt>
      <trkpt lat="45.198076" lon="5.657598">
        <ele>546.55</ele>
      </trkpt>
      <trkpt lat="45.198119" lon="5.657486">
        <ele>551.74</ele>
      </trkpt>
      <trkpt lat="45.198163" lon="5.657429">
        <ele>553.7</ele>
      </trkpt>
      <trkpt lat="45.198206" lon="5.657392">
        <ele>554.47</ele>
      </trkpt>
      <trkpt lat="45.198228" lon="5.657331">
        <ele>557.1</ele>
      </trkpt>
      <trkpt lat="45.19822" lon="5.657294">
        <ele>558.69</ele>
      </trkpt>
      <trkpt lat="45.19818" lon="5.657262">
        <ele>561.3</ele>
      </trkpt>
      <trkpt lat="45.198113" lon="5.657242">
        <ele>564.33</ele>
      </trkpt>
      <trkpt lat="45.198058" lon="5.657211">
        <ele>569.5</ele>
      </trkpt>
      <trkpt lat="45.198034" lon="5.657146">
        <ele>574.82</ele>
      </trkpt>
      <trkpt lat="45.198017" lon="5.657045">
        <ele>589.19</ele>
      </trkpt>
      <trkpt lat="45.198158" lon="5.65694">
        <ele>594.3</ele>
      </trkpt>
      <trkpt lat="45.198275" lon="5.656892">
        <ele>601.18</ele>
      </trkpt>
      <trkpt lat="45.198527" lon="5.656956">
        <ele>582</ele>
      </trkpt>
      <trkpt lat="45.198755" lon="5.656918">
        <ele>588.96</ele>
      </trkpt>
      <trkpt lat="45.198925" lon="5.656633">
        <ele>618.85</ele>
      </trkpt>
      <trkpt lat="45.199031" lon="5.656629">
        <ele>614.91</ele>
      </trkpt>
      <trkpt lat="45.199151" lon="5.656723">
        <ele>607.79</ele>
      </trkpt>
      <trkpt lat="45.199387" lon="5.656672">
        <ele>618.12</ele>
      </trkpt>
      <trkpt lat="45.199694" lon="5.656663">
        <ele>626.47</ele>
      </trkpt>
      <trkpt lat="45.199787" lon="5.656602">
        <ele>632.2</ele>
      </trkpt>
      <trkpt lat="45.199859" lon="5.656645">
        <ele>629.7</ele>
      </trkpt>
      <trkpt lat="45.199908" lon="5.656448">
        <ele>640.59</ele>
      </trkpt>
      <trkpt lat="45.200072" lon="5.656321">
        <ele>644.91</ele>
      </trkpt>
      <trkpt lat="45.200133" lon="5.656039">
        <ele>658.95</ele>
      </trkpt>
      <trkpt lat="45.200123" lon="5.655978">
        <ele>662.27</ele>
      </trkpt>
      <trkpt lat="45.200063" lon="5.655949">
        <ele>665.84</ele>
      </trkpt>
      <trkpt lat="45.200049" lon="5.655883">
        <ele>670.45</ele>
      </trkpt>
      <trkpt lat="45.200085" lon="5.655827">
        <ele>672.61</ele>
      </trkpt>
      <trkpt lat="45.20016" lon="5.655785">
        <ele>672.14</ele>
      </trkpt>
      <trkpt lat="45.20019" lon="5.655725">
        <ele>675.76</ele>
      </trkpt>
      <trkpt lat="45.200183" lon="5.655648">
        <ele>680.7</ele>
      </trkpt>
      <trkpt lat="45.200098" lon="5.65562">
        <ele>684.7</ele>
      </trkpt>
      <trkpt lat="45.20001" lon="5.655553">
        <ele>692.05</ele>
      </trkpt>
      <trkpt lat="45.199921" lon="5.655506">
        <ele>698.22</ele>
      </trkpt>
      <trkpt lat="45.199845" lon="5.65549">
        <ele>700.31</ele>
      </trkpt>
      <trkpt lat="45.199824" lon="5.655405">
        <ele>705.61</ele>
      </trkpt>
      <trkpt lat="45.199958" lon="5.655328">
        <ele>708.27</ele>
      </trkpt>
      <trkpt lat="45.200124" lon="5.655232">
        <ele>711.57</ele>
      </trkpt>
      <trkpt lat="45.20019" lon="5.655113">
        <ele>719.1</ele>
      </trkpt>
      <trkpt lat="45.20028" lon="5.655104">
        <ele>719.7</ele>
      </trkpt>
      <trkpt lat="45.200386" lon="5.654954">
        <ele>730.31</ele>
      </trkpt>
      <trkpt lat="45.200492" lon="5.654881">
        <ele>736.93</ele>
      </trkpt>
      <trkpt lat="45.200569" lon="5.654877">
        <ele>736.86</ele>
      </trkpt>
      <trkpt lat="45.200627" lon="5.654803">
        <ele>741.49</ele>
      </trkpt>
      <trkpt lat="45.200833" lon="5.654783">
        <ele>742.14</ele>
      </trkpt>
      <trkpt lat="45.200998" lon="5.654785">
        <ele>743.06</ele>
      </trkpt>
      <trkpt lat="45.201117" lon="5.654686">
        <ele>750.9</ele>
      </trkpt>
      <trkpt lat="45.201238" lon="5.654643">
        <ele>752.93</ele>
      </trkpt>
      <trkpt lat="45.201325" lon="5.654566">
        <ele>756.43</ele>
      </trkpt>
      <trkpt lat="45.201417" lon="5.654533">
        <ele>757.2</ele>
      </trkpt>
      <trkpt lat="45.201487" lon="5.654409">
        <ele>763.25</ele>
      </trkpt>
      <trkpt lat="45.201597" lon="5.654306">
        <ele>766.16</ele>
      </trkpt>
      <trkpt lat="45.201785" lon="5.6542">
        <ele>767.3</ele>
      </trkpt>
      <trkpt lat="45.201948" lon="5.65406">
        <ele>771.89</ele>
      </trkpt>
      <trkpt lat="45.201997" lon="5.654095">
        <ele>768.88</ele>
      </trkpt>
      <trkpt lat="45.202151" lon="5.653878">
        <ele>776.28</ele>
      </trkpt>
      <trkpt lat="45.20235" lon="5.653487">
        <ele>789.27</ele>
      </trkpt>
      <trkpt lat="45.202512" lon="5.653338">
        <ele>788.73</ele>
      </trkpt>
      <trkpt lat="45.20289" lon="5.653034">
        <ele>793.88</ele>
      </trkpt>
      <trkpt lat="45.202999" lon="5.652916">
        <ele>795.64</ele>
      </trkpt>
      <trkpt lat="45.203343" lon="5.652771">
        <ele>791.12</ele>
      </trkpt>
      <trkpt lat="45.203399" lon="5.652694">
        <ele>793.38</ele>
      </trkpt>
      <trkpt lat="45.203651" lon="5.65267">
        <ele>788.51</ele>
      </trkpt>
      <trkpt lat="45.203703" lon="5.652636">
        <ele>788.16</ele>
      </trkpt>
      <trkpt lat="45.203748" lon="5.65252">
        <ele>792.91</ele>
      </trkpt>
      <trkpt lat="45.203894" lon="5.652369">
        <ele>791.69</ele>
      </trkpt>
      <trkpt lat="45.204068" lon="5.652243">
        <ele>789.78</ele>
      </trkpt>
      <trkpt lat="45.204095" lon="5.652147">
        <ele>792.13</ele>
      </trkpt>
      <trkpt lat="45.204142" lon="5.652076">
        <ele>792.22</ele>
      </trkpt>
      <trkpt lat="45.204166" lon="5.651976">
        <ele>794.4</ele>
      </trkpt>
      <trkpt lat="45.204247" lon="5.651902">
        <ele>792.54</ele>
      </trkpt>
      <trkpt lat="45.204238" lon="5.651849">
        <ele>794.45</ele>
      </trkpt>
      <trkpt lat="45.204234" lon="5.651823">
        <ele>795.39</ele>
      </trkpt>
      <trkpt lat="45.204274" lon="5.651699">
        <ele>795.55</ele>
      </trkpt>
      <trkpt lat="45.204255" lon="5.651618">
        <ele>797.66</ele>
      </trkpt>
      <trkpt lat="45.20421" lon="5.651561">
        <ele>800.54</ele>
      </trkpt>
      <trkpt lat="45.204236" lon="5.651464">
        <ele>800.24</ele>
      </trkpt>
      <trkpt lat="45.204244" lon="5.651396">
        <ele>800.26</ele>
      </trkpt>
      <trkpt lat="45.204234" lon="5.651289">
        <ele>801.14</ele>
      </trkpt>
      <trkpt lat="45.204212" lon="5.651232">
        <ele>802.12</ele>
      </trkpt>
      <trkpt lat="45.204179" lon="5.651233">
        <ele>803.87</ele>
      </trkpt>
      <trkpt lat="45.204142" lon="5.651251">
        <ele>805.92</ele>
      </trkpt>
      <trkpt lat="45.204096" lon="5.651292">
        <ele>808.58</ele>
      </trkpt>
      <trkpt lat="45.204053" lon="5.651387">
        <ele>810.27</ele>
      </trkpt>
      <trkpt lat="45.204007" lon="5.651409">
        <ele>812.14</ele>
      </trkpt>
      <trkpt lat="45.203954" lon="5.651249">
        <ele>815.67</ele>
      </trkpt>
      <trkpt lat="45.203907" lon="5.651177">
        <ele>818.12</ele>
      </trkpt>
      <trkpt lat="45.203801" lon="5.651066">
        <ele>822.23</ele>
      </trkpt>
      <trkpt lat="45.203749" lon="5.651044">
        <ele>824.29</ele>
      </trkpt>
      <trkpt lat="45.203695" lon="5.651074">
        <ele>826.67</ele>
      </trkpt>
      <trkpt lat="45.20368" lon="5.651128">
        <ele>827.63</ele>
      </trkpt>
      <trkpt lat="45.20363" lon="5.65116">
        <ele>829.04</ele>
      </trkpt>
      <trkpt lat="45.203534" lon="5.651154">
        <ele>832.61</ele>
      </trkpt>
      <trkpt lat="45.203467" lon="5.651165">
        <ele>835.71</ele>
      </trkpt>
      <trkpt lat="45.20342" lon="5.651197">
        <ele>837.18</ele>
      </trkpt>
      <trkpt lat="45.203378" lon="5.651241">
        <ele>837.66</ele>
      </trkpt>
      <trkpt lat="45.203343" lon="5.651262">
        <ele>838.36</ele>
      </trkpt>
      <trkpt lat="45.203318" lon="5.651259">
        <ele>839.34</ele>
      </trkpt>
      <trkpt lat="45.20329" lon="5.651097">
        <ele>843.89</ele>
      </trkpt>
      <trkpt lat="45.203249" lon="5.651017">
        <ele>845.84</ele>
      </trkpt>
      <trkpt lat="45.203193" lon="5.650948">
        <ele>848.15</ele>
      </trkpt>
      <trkpt lat="45.203064" lon="5.650762">
        <ele>852.69</ele>
      </trkpt>
      <trkpt lat="45.20294" lon="5.650869">
        <ele>851.84</ele>
      </trkpt>
      <trkpt lat="45.20276" lon="5.650999">
        <ele>852.2</ele>
      </trkpt>
      <trkpt lat="45.202705" lon="5.65107">
        <ele>852.8</ele>
      </trkpt>
      <trkpt lat="45.202679" lon="5.651149">
        <ele>852.46</ele>
      </trkpt>
      <trkpt lat="45.202661" lon="5.651236">
        <ele>850.36</ele>
      </trkpt>
      <trkpt lat="45.202633" lon="5.651296">
        <ele>849.31</ele>
      </trkpt>
      <trkpt lat="45.202536" lon="5.651435">
        <ele>849.47</ele>
      </trkpt>
      <trkpt lat="45.202431" lon="5.651527">
        <ele>852.33</ele>
      </trkpt>
      <trkpt lat="45.202385" lon="5.651644">
        <ele>854.13</ele>
      </trkpt>
      <trkpt lat="45.202361" lon="5.65176">
        <ele>854.76</ele>
      </trkpt>
      <trkpt lat="45.202345" lon="5.651928">
        <ele>855.38</ele>
      </trkpt>
      <trkpt lat="45.202364" lon="5.652159">
        <ele>857.01</ele>
      </trkpt>
      <trkpt lat="45.202325" lon="5.652273">
        <ele>857.1</ele>
      </trkpt>
      <trkpt lat="45.202297" lon="5.652307">
        <ele>857.18</ele>
      </trkpt>
      <trkpt lat="45.202245" lon="5.652311">
        <ele>857.99</ele>
      </trkpt>
      <trkpt lat="45.202166" lon="5.652335">
        <ele>858.62</ele>
      </trkpt>
      <trkpt lat="45.202094" lon="5.652306">
        <ele>859.82</ele>
      </trkpt>
      <trkpt lat="45.202048" lon="5.652288">
        <ele>860.59</ele>
      </trkpt>
      <trkpt lat="45.201982" lon="5.652441">
        <ele>857.76</ele>
      </trkpt>
      <trkpt lat="45.201884" lon="5.652608">
        <ele>853.95</ele>
      </trkpt>
      <trkpt lat="45.201824" lon="5.65267">
        <ele>852.51</ele>
      </trkpt>
      <trkpt lat="45.201729" lon="5.652694">
        <ele>851.89</ele>
      </trkpt>
      <trkpt lat="45.201518" lon="5.652698">
        <ele>849.14</ele>
      </trkpt>
      <trkpt lat="45.201312" lon="5.652648">
        <ele>849.53</ele>
      </trkpt>
      <trkpt lat="45.201016" lon="5.652661">
        <ele>849.83</ele>
      </trkpt>
      <trkpt lat="45.200814" lon="5.65278">
        <ele>846.87</ele>
      </trkpt>
      <trkpt lat="45.200584" lon="5.652972">
        <ele>844.37</ele>
      </trkpt>
      <trkpt lat="45.20034" lon="5.653099">
        <ele>843.68</ele>
      </trkpt>
      <trkpt lat="45.20013" lon="5.653153">
        <ele>842.84</ele>
      </trkpt>
      <trkpt lat="45.200053" lon="5.65323">
        <ele>842.13</ele>
      </trkpt>
      <trkpt lat="45.199948" lon="5.65328">
        <ele>842.43</ele>
      </trkpt>
      <trkpt lat="45.199635" lon="5.653531">
        <ele>841.72</ele>
      </trkpt>
      <trkpt lat="45.199562" lon="5.653516">
        <ele>841.27</ele>
      </trkpt>
      <trkpt lat="45.199322" lon="5.653445">
        <ele>837.47</ele>
      </trkpt>
      <trkpt lat="45.199178" lon="5.653489">
        <ele>834.53</ele>
      </trkpt>
      <trkpt lat="45.199034" lon="5.653512">
        <ele>831.79</ele>
      </trkpt>
      <trkpt lat="45.198925" lon="5.653548">
        <ele>829.89</ele>
      </trkpt>
      <trkpt lat="45.198821" lon="5.653631">
        <ele>826.17</ele>
      </trkpt>
      <trkpt lat="45.198678" lon="5.653775">
        <ele>818.42</ele>
      </trkpt>
      <trkpt lat="45.198603" lon="5.65383">
        <ele>814.5</ele>
      </trkpt>
      <trkpt lat="45.198372" lon="5.653856">
        <ele>808.36</ele>
      </trkpt>
      <trkpt lat="45.198254" lon="5.65391">
        <ele>804.67</ele>
      </trkpt>
      <trkpt lat="45.198145" lon="5.654009">
        <ele>800.61</ele>
      </trkpt>
      <trkpt lat="45.197907" lon="5.654281">
        <ele>789.64</ele>
      </trkpt>
      <trkpt lat="45.197794" lon="5.654356">
        <ele>786.58</ele>
      </trkpt>
      <trkpt lat="45.19768" lon="5.654467">
        <ele>781.8</ele>
      </trkpt>
      <trkpt lat="45.197607" lon="5.654557">
        <ele>777.88</ele>
      </trkpt>
      <trkpt lat="45.197549" lon="5.654584">
        <ele>776.45</ele>
      </trkpt>
      <trkpt lat="45.197328" lon="5.654608">
        <ele>772.86</ele>
      </trkpt>
      <trkpt lat="45.197242" lon="5.654584">
        <ele>772.93</ele>
      </trkpt>
      <trkpt lat="45.197081" lon="5.654593">
        <ele>770.88</ele>
      </trkpt>
      <trkpt lat="45.196952" lon="5.654618">
        <ele>767.88</ele>
      </trkpt>
      <trkpt lat="45.196824" lon="5.654627">
        <ele>765.46</ele>
      </trkpt>
      <trkpt lat="45.196539" lon="5.654705">
        <ele>756.42</ele>
      </trkpt>
      <trkpt lat="45.196171" lon="5.654722">
        <ele>746.14</ele>
      </trkpt>
      <trkpt lat="45.196064" lon="5.654752">
        <ele>742.61</ele>
      </trkpt>
      <trkpt lat="45.195945" lon="5.654756">
        <ele>738.91</ele>
      </trkpt>
      <trkpt lat="45.195669" lon="5.654718">
        <ele>731.03</ele>
      </trkpt>
      <trkpt lat="45.195405" lon="5.65477">
        <ele>719.48</ele>
      </trkpt>
      <trkpt lat="45.195114" lon="5.654871">
        <ele>704.68</ele>
      </trkpt>
      <trkpt lat="45.194976" lon="5.654881">
        <ele>700.42</ele>
      </trkpt>
      <trkpt lat="45.194888" lon="5.654914">
        <ele>696.8</ele>
      </trkpt>
      <trkpt lat="45.19472" lon="5.654929">
        <ele>693.19</ele>
      </trkpt>
      <trkpt lat="45.194549" lon="5.654985">
        <ele>686.38</ele>
      </trkpt>
      <trkpt lat="45.194434" lon="5.655004">
        <ele>682.28</ele>
      </trkpt>
      <trkpt lat="45.194238" lon="5.654968">
        <ele>679.31</ele>
      </trkpt>
      <trkpt lat="45.194156" lon="5.654936">
        <ele>677.96</ele>
      </trkpt>
      <trkpt lat="45.193953" lon="5.654889">
        <ele>672.02</ele>
      </trkpt>
      <trkpt lat="45.193854" lon="5.654893">
        <ele>668.56</ele>
      </trkpt>
      <trkpt lat="45.193873" lon="5.654939">
        <ele>667.03</ele>
      </trkpt>
      <trkpt lat="45.193935" lon="5.655092">
        <ele>661.97</ele>
      </trkpt>
      <trkpt lat="45.193769" lon="5.655167">
        <ele>653.93</ele>
      </trkpt>
      <trkpt lat="45.193836" lon="5.655363">
        <ele>648.02</ele>
      </trkpt>
      <trkpt lat="45.19377" lon="5.655354">
        <ele>645.96</ele>
      </trkpt>
      <trkpt lat="45.193838" lon="5.655496">
        <ele>642.53</ele>
      </trkpt>
      <trkpt lat="45.193754" lon="5.655495">
        <ele>639.58</ele>
      </trkpt>
      <trkpt lat="45.193797" lon="5.655579">
        <ele>637.96</ele>
      </trkpt>
      <trkpt lat="45.193856" lon="5.655643">
        <ele>637.88</ele>
      </trkpt>
      <trkpt lat="45.193876" lon="5.655751">
        <ele>634.11</ele>
      </trkpt>
      <trkpt lat="45.193943" lon="5.655853">
        <ele>632.53</ele>
      </trkpt>
      <trkpt lat="45.194101" lon="5.656229">
        <ele>620.6</ele>
      </trkpt>
      <trkpt lat="45.1941" lon="5.656315">
        <ele>617.74</ele>
      </trkpt>
      <trkpt lat="45.194173" lon="5.656498">
        <ele>612.78</ele>
      </trkpt>
      <trkpt lat="45.194117" lon="5.656701">
        <ele>608.29</ele>
      </trkpt>
      <trkpt lat="45.194148" lon="5.656913">
        <ele>602.8</ele>
      </trkpt>
      <trkpt lat="45.194192" lon="5.657093">
        <ele>599.28</ele>
      </trkpt>
      <trkpt lat="45.194246" lon="5.657273">
        <ele>596.25</ele>
      </trkpt>
      <trkpt lat="45.19419" lon="5.657432">
        <ele>592.17</ele>
      </trkpt>
      <trkpt lat="45.194104" lon="5.657525">
        <ele>588.59</ele>
      </trkpt>
      <trkpt lat="45.194025" lon="5.657563">
        <ele>586.17</ele>
      </trkpt>
      <trkpt lat="45.193931" lon="5.657622">
        <ele>581.76</ele>
      </trkpt>
      <trkpt lat="45.193882" lon="5.657623">
        <ele>579.72</ele>
      </trkpt>
      <trkpt lat="45.193576" lon="5.657823">
        <ele>561.78</ele>
      </trkpt>
      <trkpt lat="45.193489" lon="5.657863">
        <ele>557.38</ele>
      </trkpt>
      <trkpt lat="45.193381" lon="5.657895">
        <ele>553.23</ele>
      </trkpt>
      <trkpt lat="45.193185" lon="5.657931">
        <ele>546.33</ele>
      </trkpt>
      <trkpt lat="45.193049" lon="5.657952">
        <ele>539.95</ele>
      </trkpt>
      <trkpt lat="45.192967" lon="5.657941">
        <ele>536.91</ele>
      </trkpt>
      <trkpt lat="45.192911" lon="5.657963">
        <ele>534.07</ele>
      </trkpt>
      <trkpt lat="45.19266" lon="5.65821">
        <ele>523.2</ele>
      </trkpt>
      <trkpt lat="45.192589" lon="5.658304">
        <ele>521.29</ele>
      </trkpt>
      <trkpt lat="45.192396" lon="5.658508">
        <ele>517.42</ele>
      </trkpt>
      <trkpt lat="45.19226" lon="5.658591">
        <ele>517.16</ele>
      </trkpt>
      <trkpt lat="45.192151" lon="5.658631">
        <ele>518.47</ele>
      </trkpt>
      <trkpt lat="45.192027" lon="5.658771">
        <ele>516.97</ele>
      </trkpt>
      <trkpt lat="45.191921" lon="5.658963">
        <ele>517.34</ele>
      </trkpt>
      <trkpt lat="45.191795" lon="5.659076">
        <ele>519.89</ele>
      </trkpt>
      <trkpt lat="45.191701" lon="5.659257">
        <ele>521.21</ele>
      </trkpt>
      <trkpt lat="45.191554" lon="5.659308">
        <ele>523.51</ele>
      </trkpt>
      <trkpt lat="45.191446" lon="5.659545">
        <ele>519.63</ele>
      </trkpt>
      <trkpt lat="45.191306" lon="5.659605">
        <ele>519</ele>
      </trkpt>
      <trkpt lat="45.191239" lon="5.659672">
        <ele>516.83</ele>
      </trkpt>
      <trkpt lat="45.191082" lon="5.659693">
        <ele>513.77</ele>
      </trkpt>
      <trkpt lat="45.190814" lon="5.659562">
        <ele>507.96</ele>
      </trkpt>
      <trkpt lat="45.190672" lon="5.659544">
        <ele>503.92</ele>
      </trkpt>
      <trkpt lat="45.190457" lon="5.659551">
        <ele>497.44</ele>
      </trkpt>
      <trkpt lat="45.190185" lon="5.659469">
        <ele>490.87</ele>
      </trkpt>
      <trkpt lat="45.190108" lon="5.659462">
        <ele>488.5</ele>
      </trkpt>
      <trkpt lat="45.190029" lon="5.659537">
        <ele>485.45</ele>
      </trkpt>
      <trkpt lat="45.189919" lon="5.659716">
        <ele>481.12</ele>
      </trkpt>
      <trkpt lat="45.189862" lon="5.659838">
        <ele>479.82</ele>
      </trkpt>
      <trkpt lat="45.189833" lon="5.659968">
        <ele>478.08</ele>
      </trkpt>
      <trkpt lat="45.189883" lon="5.66012">
        <ele>475.44</ele>
      </trkpt>
      <trkpt lat="45.189935" lon="5.660232">
        <ele>474.21</ele>
      </trkpt>
      <trkpt lat="45.189935" lon="5.66033">
        <ele>473.46</ele>
      </trkpt>
      <trkpt lat="45.189907" lon="5.660414">
        <ele>473.25</ele>
      </trkpt>
      <trkpt lat="45.189708" lon="5.660275">
        <ele>474.2</ele>
      </trkpt>
      <trkpt lat="45.189239" lon="5.660269">
        <ele>473.23</ele>
      </trkpt>
      <trkpt lat="45.189151" lon="5.660309">
        <ele>473.21</ele>
      </trkpt>
      <trkpt lat="45.188912" lon="5.660624">
        <ele>471.48</ele>
      </trkpt>
      <trkpt lat="45.1888" lon="5.660707">
        <ele>470.29</ele>
      </trkpt>
      <trkpt lat="45.18865" lon="5.66078">
        <ele>468.16</ele>
      </trkpt>
      <trkpt lat="45.188581" lon="5.660841">
        <ele>467.85</ele>
      </trkpt>
      <trkpt lat="45.188526" lon="5.660941">
        <ele>467.08</ele>
      </trkpt>
      <trkpt lat="45.1883" lon="5.661621">
        <ele>466.65</ele>
      </trkpt>
      <trkpt lat="45.188285" lon="5.66176">
        <ele>466.19</ele>
      </trkpt>
      <trkpt lat="45.188299" lon="5.662217">
        <ele>466.41</ele>
      </trkpt>
      <trkpt lat="45.188267" lon="5.662444">
        <ele>464.74</ele>
      </trkpt>
      <trkpt lat="45.188259" lon="5.662574">
        <ele>463.44</ele>
      </trkpt>
      <trkpt lat="45.188277" lon="5.662692">
        <ele>461.76</ele>
      </trkpt>
      <trkpt lat="45.188165" lon="5.66273">
        <ele>463.52</ele>
      </trkpt>
      <trkpt lat="45.188075" lon="5.662793">
        <ele>465.47</ele>
      </trkpt>
      <trkpt lat="45.188016" lon="5.662834">
        <ele>466.75</ele>
      </trkpt>
      <trkpt lat="45.187867" lon="5.662938">
        <ele>470.19</ele>
      </trkpt>
      <trkpt lat="45.187488" lon="5.663227">
        <ele>476.88</ele>
      </trkpt>
      <trkpt lat="45.187384" lon="5.663284">
        <ele>479.01</ele>
      </trkpt>
      <trkpt lat="45.187256" lon="5.663314">
        <ele>481.37</ele>
      </trkpt>
      <trkpt lat="45.187179" lon="5.663309">
        <ele>482.77</ele>
      </trkpt>
      <trkpt lat="45.186982" lon="5.663123">
        <ele>487.27</ele>
      </trkpt>
      <trkpt lat="45.186716" lon="5.662954">
        <ele>486.06</ele>
      </trkpt>
      <trkpt lat="45.186652" lon="5.662945">
        <ele>486</ele>
      </trkpt>
      <trkpt lat="45.186536" lon="5.662992">
        <ele>485.7</ele>
      </trkpt>
      <trkpt lat="45.186272" lon="5.663096">
        <ele>483.53</ele>
      </trkpt>
      <trkpt lat="45.18619" lon="5.66312">
        <ele>482.92</ele>
      </trkpt>
      <trkpt lat="45.186137" lon="5.663126">
        <ele>482.9</ele>
      </trkpt>
      <trkpt lat="45.186024" lon="5.663116">
        <ele>482.7</ele>
      </trkpt>
      <trkpt lat="45.18596" lon="5.663125">
        <ele>481.87</ele>
      </trkpt>
      <trkpt lat="45.185936" lon="5.663111">
        <ele>481.27</ele>
      </trkpt>
      <trkpt lat="45.185918" lon="5.663085">
        <ele>480.84</ele>
      </trkpt>
      <trkpt lat="45.185898" lon="5.663031">
        <ele>480.35</ele>
      </trkpt>
      <trkpt lat="45.185874" lon="5.662928">
        <ele>480.09</ele>
      </trkpt>
      <trkpt lat="45.185823" lon="5.662826">
        <ele>479.61</ele>
      </trkpt>
      <trkpt lat="45.185601" lon="5.662501">
        <ele>479.87</ele>
      </trkpt>
      <trkpt lat="45.185553" lon="5.662444">
        <ele>480.24</ele>
      </trkpt>
      <trkpt lat="45.185513" lon="5.662419">
        <ele>480.14</ele>
      </trkpt>
      <trkpt lat="45.185415" lon="5.66241">
        <ele>479.36</ele>
      </trkpt>
      <trkpt lat="45.185246" lon="5.662424">
        <ele>478.22</ele>
      </trkpt>
      <trkpt lat="45.18503" lon="5.662476">
        <ele>475.56</ele>
      </trkpt>
      <trkpt lat="45.184956" lon="5.66251">
        <ele>475.01</ele>
      </trkpt>
      <trkpt lat="45.184779" lon="5.662627">
        <ele>472.51</ele>
      </trkpt>
      <trkpt lat="45.1845" lon="5.662727">
        <ele>470.52</ele>
      </trkpt>
      <trkpt lat="45.184429" lon="5.662776">
        <ele>470.1</ele>
      </trkpt>
      <trkpt lat="45.18437" lon="5.66286">
        <ele>469.66</ele>
      </trkpt>
      <trkpt lat="45.184259" lon="5.663139">
        <ele>467.02</ele>
      </trkpt>
      <trkpt lat="45.184194" lon="5.663231">
        <ele>466.34</ele>
      </trkpt>
      <trkpt lat="45.183936" lon="5.66348">
        <ele>463.39</ele>
      </trkpt>
      <trkpt lat="45.183838" lon="5.663613">
        <ele>461.57</ele>
      </trkpt>
      <trkpt lat="45.183594" lon="5.66408">
        <ele>457.59</ele>
      </trkpt>
      <trkpt lat="45.183127" lon="5.664796">
        <ele>450.22</ele>
      </trkpt>
      <trkpt lat="45.183007" lon="5.665019">
        <ele>448.63</ele>
      </trkpt>
      <trkpt lat="45.182734" lon="5.665788">
        <ele>441.6</ele>
      </trkpt>
      <trkpt lat="45.182632" lon="5.666031">
        <ele>440.25</ele>
      </trkpt>
      <trkpt lat="45.182505" lon="5.666282">
        <ele>436.76</ele>
      </trkpt>
      <trkpt lat="45.182327" lon="5.66657">
        <ele>435.01</ele>
      </trkpt>
      <trkpt lat="45.182196" lon="5.666713">
        <ele>433.51</ele>
      </trkpt>
      <trkpt lat="45.181984" lon="5.666914">
        <ele>430.88</ele>
      </trkpt>
      <trkpt lat="45.181872" lon="5.667068">
        <ele>429.62</ele>
      </trkpt>
      <trkpt lat="45.181813" lon="5.667179">
        <ele>428.78</ele>
      </trkpt>
      <trkpt lat="45.181667" lon="5.66757">
        <ele>426.58</ele>
      </trkpt>
      <trkpt lat="45.181621" lon="5.667756">
        <ele>425.77</ele>
      </trkpt>
      <trkpt lat="45.181595" lon="5.667952">
        <ele>424.62</ele>
      </trkpt>
      <trkpt lat="45.18156" lon="5.668386">
        <ele>422.38</ele>
      </trkpt>
      <trkpt lat="45.181519" lon="5.668523">
        <ele>422.2</ele>
      </trkpt>
      <trkpt lat="45.181447" lon="5.668659">
        <ele>421.34</ele>
      </trkpt>
      <trkpt lat="45.18125" lon="5.668876">
        <ele>419.5</ele>
      </trkpt>
      <trkpt lat="45.180809" lon="5.669446">
        <ele>414.25</ele>
      </trkpt>
      <trkpt lat="45.180484" lon="5.669772">
        <ele>410.7</ele>
      </trkpt>
      <trkpt lat="45.180441" lon="5.669882">
        <ele>409.77</ele>
      </trkpt>
      <trkpt lat="45.18043" lon="5.669983">
        <ele>409.76</ele>
      </trkpt>
      <trkpt lat="45.180444" lon="5.670071">
        <ele>409.65</ele>
      </trkpt>
      <trkpt lat="45.180484" lon="5.670195">
        <ele>409.83</ele>
      </trkpt>
      <trkpt lat="45.180563" lon="5.670351">
        <ele>409.66</ele>
      </trkpt>
      <trkpt lat="45.180696" lon="5.670557">
        <ele>410.74</ele>
      </trkpt>
      <trkpt lat="45.180771" lon="5.67069">
        <ele>412.56</ele>
      </trkpt>
      <trkpt lat="45.180769" lon="5.670825">
        <ele>414.07</ele>
      </trkpt>
      <trkpt lat="45.180721" lon="5.671088">
        <ele>416.9</ele>
      </trkpt>
      <trkpt lat="45.180726" lon="5.671187">
        <ele>417.86</ele>
      </trkpt>
      <trkpt lat="45.180807" lon="5.671269">
        <ele>418.36</ele>
      </trkpt>
      <trkpt lat="45.180807" lon="5.671441">
        <ele>419.66</ele>
      </trkpt>
      <trkpt lat="45.180896" lon="5.672251">
        <ele>423</ele>
      </trkpt>
      <trkpt lat="45.18088" lon="5.67247">
        <ele>424.03</ele>
      </trkpt>
      <trkpt lat="45.180523" lon="5.672597">
        <ele>423.09</ele>
      </trkpt>
      <trkpt lat="45.180255" lon="5.672729">
        <ele>422.3</ele>
      </trkpt>
      <trkpt lat="45.179847" lon="5.673001">
        <ele>421.85</ele>
      </trkpt>
      <trkpt lat="45.179765" lon="5.673067">
        <ele>421.78</ele>
      </trkpt>
      <trkpt lat="45.179563" lon="5.673287">
        <ele>422.1</ele>
      </trkpt>
      <trkpt lat="45.179388" lon="5.673523">
        <ele>422.54</ele>
      </trkpt>
      <trkpt lat="45.17923" lon="5.673742">
        <ele>421.88</ele>
      </trkpt>
      <trkpt lat="45.179099" lon="5.673965">
        <ele>421.27</ele>
      </trkpt>
      <trkpt lat="45.178942" lon="5.674111">
        <ele>421.42</ele>
      </trkpt>
      <trkpt lat="45.178823" lon="5.674129">
        <ele>421.45</ele>
      </trkpt>
      <trkpt lat="45.178703" lon="5.674135">
        <ele>421.31</ele>
      </trkpt>
      <trkpt lat="45.178575" lon="5.674131">
        <ele>422.86</ele>
      </trkpt>
      <trkpt lat="45.178245" lon="5.67436">
        <ele>425.01</ele>
      </trkpt>
      <trkpt lat="45.178141" lon="5.674581">
        <ele>425.66</ele>
      </trkpt>
      <trkpt lat="45.178015" lon="5.674811">
        <ele>427.2</ele>
      </trkpt>
      <trkpt lat="45.177887" lon="5.675099">
        <ele>428.98</ele>
      </trkpt>
      <trkpt lat="45.177666" lon="5.675546">
        <ele>430.73</ele>
      </trkpt>
      <trkpt lat="45.177612" lon="5.675776">
        <ele>431.16</ele>
      </trkpt>
      <trkpt lat="45.177568" lon="5.675853">
        <ele>431.04</ele>
      </trkpt>
      <trkpt lat="45.177486" lon="5.675905">
        <ele>433.19</ele>
      </trkpt>
      <trkpt lat="45.177092" lon="5.67597">
        <ele>436.23</ele>
      </trkpt>
      <trkpt lat="45.17699" lon="5.675999">
        <ele>435.55</ele>
      </trkpt>
      <trkpt lat="45.17684" lon="5.676062">
        <ele>434.19</ele>
      </trkpt>
      <trkpt lat="45.176713" lon="5.676156">
        <ele>432.04</ele>
      </trkpt>
      <trkpt lat="45.176688" lon="5.676191">
        <ele>431.26</ele>
      </trkpt>
      <trkpt lat="45.176677" lon="5.676229">
        <ele>430.23</ele>
      </trkpt>
      <trkpt lat="45.176681" lon="5.676291">
        <ele>428.81</ele>
      </trkpt>
      <trkpt lat="45.176708" lon="5.676341">
        <ele>427.36</ele>
      </trkpt>
      <trkpt lat="45.176874" lon="5.676255">
        <ele>425.26</ele>
      </trkpt>
      <trkpt lat="45.176918" lon="5.67627">
        <ele>423.74</ele>
      </trkpt>
      <trkpt lat="45.176928" lon="5.676303">
        <ele>422.51</ele>
      </trkpt>
      <trkpt lat="45.176907" lon="5.676339">
        <ele>422.01</ele>
      </trkpt>
      <trkpt lat="45.176869" lon="5.676366">
        <ele>422.23</ele>
      </trkpt>
      <trkpt lat="45.176851" lon="5.676399">
        <ele>421.88</ele>
      </trkpt>
      <trkpt lat="45.176846" lon="5.676637">
        <ele>417.83</ele>
      </trkpt>
      <trkpt lat="45.176811" lon="5.676987">
        <ele>412.44</ele>
      </trkpt>
      <trkpt lat="45.176683" lon="5.67728">
        <ele>411.14</ele>
      </trkpt>
      <trkpt lat="45.176636" lon="5.677365">
        <ele>411.27</ele>
      </trkpt>
      <trkpt lat="45.176576" lon="5.677556">
        <ele>410.48</ele>
      </trkpt>
      <trkpt lat="45.176354" lon="5.677886">
        <ele>410.39</ele>
      </trkpt>
      <trkpt lat="45.176373" lon="5.678001">
        <ele>410.35</ele>
      </trkpt>
      <trkpt lat="45.176347" lon="5.67824">
        <ele>416.41</ele>
      </trkpt>
      <trkpt lat="45.176279" lon="5.678384">
        <ele>416.13</ele>
      </trkpt>
      <trkpt lat="45.176225" lon="5.67852">
        <ele>418.09</ele>
      </trkpt>
      <trkpt lat="45.176183" lon="5.678626">
        <ele>419.61</ele>
      </trkpt>
      <trkpt lat="45.176158" lon="5.678784">
        <ele>423.29</ele>
      </trkpt>
      <trkpt lat="45.176086" lon="5.679053">
        <ele>425.23</ele>
      </trkpt>
      <trkpt lat="45.176138" lon="5.679139">
        <ele>427.3</ele>
      </trkpt>
      <trkpt lat="45.176233" lon="5.679205">
        <ele>429.61</ele>
      </trkpt>
      <trkpt lat="45.176371" lon="5.67928">
        <ele>431.85</ele>
      </trkpt>
      <trkpt lat="45.176694" lon="5.679379">
        <ele>438.58</ele>
      </trkpt>
      <trkpt lat="45.176811" lon="5.679376">
        <ele>442.16</ele>
      </trkpt>
      <trkpt lat="45.176995" lon="5.679425">
        <ele>444.74</ele>
      </trkpt>
      <trkpt lat="45.177102" lon="5.679468">
        <ele>445.66</ele>
      </trkpt>
      <trkpt lat="45.177244" lon="5.67943">
        <ele>449.72</ele>
      </trkpt>
      <trkpt lat="45.177497" lon="5.67939">
        <ele>454.48</ele>
      </trkpt>
      <trkpt lat="45.177702" lon="5.679347">
        <ele>456.44</ele>
      </trkpt>
      <trkpt lat="45.177912" lon="5.679248">
        <ele>459.61</ele>
      </trkpt>
      <trkpt lat="45.178135" lon="5.679093">
        <ele>462.53</ele>
      </trkpt>
      <trkpt lat="45.178238" lon="5.679051">
        <ele>462</ele>
      </trkpt>
      <trkpt lat="45.178328" lon="5.678935">
        <ele>461.23</ele>
      </trkpt>
      <trkpt lat="45.178462" lon="5.678825">
        <ele>458.96</ele>
      </trkpt>
      <trkpt lat="45.178585" lon="5.678757">
        <ele>455.88</ele>
      </trkpt>
      <trkpt lat="45.178644" lon="5.678767">
        <ele>453.72</ele>
      </trkpt>
      <trkpt lat="45.178713" lon="5.678888">
        <ele>451.35</ele>
      </trkpt>
      <trkpt lat="45.178758" lon="5.678991">
        <ele>449.27</ele>
      </trkpt>
      <trkpt lat="45.178783" lon="5.679084">
        <ele>446.71</ele>
      </trkpt>
      <trkpt lat="45.178787" lon="5.679141">
        <ele>445.36</ele>
      </trkpt>
      <trkpt lat="45.178776" lon="5.679202">
        <ele>444.09</ele>
      </trkpt>
      <trkpt lat="45.178739" lon="5.67926">
        <ele>443.75</ele>
      </trkpt>
      <trkpt lat="45.178705" lon="5.679294">
        <ele>444.57</ele>
      </trkpt>
      <trkpt lat="45.178705" lon="5.679294">
        <ele>444.57</ele>
      </trkpt>
      <trkpt lat="45.178666" lon="5.679368">
        <ele>444.14</ele>
      </trkpt>
      <trkpt lat="45.178645" lon="5.679468">
        <ele>440.8</ele>
      </trkpt>
      <trkpt lat="45.178636" lon="5.679572">
        <ele>437.6</ele>
      </trkpt>
      <trkpt lat="45.178662" lon="5.67968">
        <ele>434.34</ele>
      </trkpt>
      <trkpt lat="45.178737" lon="5.679815">
        <ele>429.98</ele>
      </trkpt>
      <trkpt lat="45.178769" lon="5.679848">
        <ele>428.64</ele>
      </trkpt>
      <trkpt lat="45.178814" lon="5.679874">
        <ele>427.17</ele>
      </trkpt>
      <trkpt lat="45.178904" lon="5.679888">
        <ele>424.77</ele>
      </trkpt>
      <trkpt lat="45.178944" lon="5.679848">
        <ele>424.04</ele>
      </trkpt>
      <trkpt lat="45.179108" lon="5.679559">
        <ele>416.61</ele>
      </trkpt>
      <trkpt lat="45.179216" lon="5.679256">
        <ele>413.42</ele>
      </trkpt>
      <trkpt lat="45.179475" lon="5.67902">
        <ele>406.75</ele>
      </trkpt>
      <trkpt lat="45.179604" lon="5.678851">
        <ele>405.01</ele>
      </trkpt>
      <trkpt lat="45.179676" lon="5.678827">
        <ele>404</ele>
      </trkpt>
      <trkpt lat="45.179744" lon="5.678722">
        <ele>403.49</ele>
      </trkpt>
      <trkpt lat="45.179783" lon="5.678703">
        <ele>402.94</ele>
      </trkpt>
      <trkpt lat="45.179955" lon="5.678776">
        <ele>399.25</ele>
      </trkpt>
      <trkpt lat="45.180093" lon="5.678815">
        <ele>396.77</ele>
      </trkpt>
      <trkpt lat="45.180219" lon="5.678866">
        <ele>393.04</ele>
      </trkpt>
      <trkpt lat="45.180256" lon="5.678646">
        <ele>394.74</ele>
      </trkpt>
      <trkpt lat="45.180289" lon="5.678291">
        <ele>396.69</ele>
      </trkpt>
      <trkpt lat="45.180314" lon="5.678181">
        <ele>396.08</ele>
      </trkpt>
      <trkpt lat="45.180403" lon="5.677964">
        <ele>393.93</ele>
      </trkpt>
      <trkpt lat="45.180507" lon="5.677648">
        <ele>390.51</ele>
      </trkpt>
      <trkpt lat="45.180561" lon="5.677465">
        <ele>387.42</ele>
      </trkpt>
      <trkpt lat="45.180582" lon="5.67735">
        <ele>385.27</ele>
      </trkpt>
      <trkpt lat="45.180592" lon="5.677201">
        <ele>382.99</ele>
      </trkpt>
      <trkpt lat="45.180593" lon="5.676951">
        <ele>381.04</ele>
      </trkpt>
      <trkpt lat="45.180619" lon="5.676785">
        <ele>381.74</ele>
      </trkpt>
      <trkpt lat="45.180695" lon="5.676465">
        <ele>384.12</ele>
      </trkpt>
      <trkpt lat="45.180734" lon="5.676339">
        <ele>385.78</ele>
      </trkpt>
      <trkpt lat="45.180795" lon="5.676244">
        <ele>387.27</ele>
      </trkpt>
      <trkpt lat="45.180862" lon="5.676187">
        <ele>388.59</ele>
      </trkpt>
      <trkpt lat="45.180952" lon="5.676148">
        <ele>389.85</ele>
      </trkpt>
      <trkpt lat="45.181105" lon="5.676122">
        <ele>390.87</ele>
      </trkpt>
      <trkpt lat="45.181218" lon="5.67609">
        <ele>391.73</ele>
      </trkpt>
      <trkpt lat="45.181295" lon="5.676044">
        <ele>392.48</ele>
      </trkpt>
      <trkpt lat="45.181355" lon="5.675991">
        <ele>392.74</ele>
      </trkpt>
      <trkpt lat="45.18158" lon="5.675669">
        <ele>397.11</ele>
      </trkpt>
      <trkpt lat="45.181751" lon="5.675411">
        <ele>398.02</ele>
      </trkpt>
      <trkpt lat="45.182049" lon="5.674883">
        <ele>402.72</ele>
      </trkpt>
      <trkpt lat="45.182088" lon="5.674817">
        <ele>402.96</ele>
      </trkpt>
      <trkpt lat="45.182137" lon="5.674757">
        <ele>403.84</ele>
      </trkpt>
      <trkpt lat="45.182178" lon="5.674669">
        <ele>405.12</ele>
      </trkpt>
      <trkpt lat="45.182214" lon="5.674551">
        <ele>405.98</ele>
      </trkpt>
      <trkpt lat="45.182293" lon="5.674213">
        <ele>408.63</ele>
      </trkpt>
      <trkpt lat="45.18233" lon="5.674109">
        <ele>408.72</ele>
      </trkpt>
      <trkpt lat="45.182361" lon="5.674047">
        <ele>409.25</ele>
      </trkpt>
      <trkpt lat="45.18252" lon="5.673942">
        <ele>412.45</ele>
      </trkpt>
      <trkpt lat="45.18274" lon="5.67374">
        <ele>416.47</ele>
      </trkpt>
      <trkpt lat="45.182833" lon="5.673667">
        <ele>417.16</ele>
      </trkpt>
      <trkpt lat="45.183876" lon="5.672742">
        <ele>420.43</ele>
      </trkpt>
      <trkpt lat="45.183984" lon="5.672688">
        <ele>420.19</ele>
      </trkpt>
      <trkpt lat="45.184659" lon="5.672507">
        <ele>417</ele>
      </trkpt>
      <trkpt lat="45.184836" lon="5.672429">
        <ele>416.51</ele>
      </trkpt>
      <trkpt lat="45.18492" lon="5.672362">
        <ele>415.33</ele>
      </trkpt>
      <trkpt lat="45.185059" lon="5.672221">
        <ele>413.6</ele>
      </trkpt>
      <trkpt lat="45.185394" lon="5.671808">
        <ele>409.44</ele>
      </trkpt>
      <trkpt lat="45.185496" lon="5.671704">
        <ele>408.88</ele>
      </trkpt>
      <trkpt lat="45.185572" lon="5.671644">
        <ele>408.83</ele>
      </trkpt>
      <trkpt lat="45.185786" lon="5.671542">
        <ele>409.11</ele>
      </trkpt>
      <trkpt lat="45.186227" lon="5.67129">
        <ele>408.36</ele>
      </trkpt>
      <trkpt lat="45.186344" lon="5.671211">
        <ele>407.89</ele>
      </trkpt>
      <trkpt lat="45.1865" lon="5.671069">
        <ele>406.47</ele>
      </trkpt>
      <trkpt lat="45.186646" lon="5.670892">
        <ele>404.81</ele>
      </trkpt>
      <trkpt lat="45.186756" lon="5.6708">
        <ele>403.45</ele>
      </trkpt>
      <trkpt lat="45.186868" lon="5.670754">
        <ele>402.26</ele>
      </trkpt>
      <trkpt lat="45.186948" lon="5.670742">
        <ele>401.12</ele>
      </trkpt>
      <trkpt lat="45.187218" lon="5.670654">
        <ele>402</ele>
      </trkpt>
      <trkpt lat="45.187346" lon="5.670721">
        <ele>402.29</ele>
      </trkpt>
      <trkpt lat="45.187578" lon="5.670718">
        <ele>403.41</ele>
      </trkpt>
      <trkpt lat="45.187682" lon="5.67073">
        <ele>404.13</ele>
      </trkpt>
      <trkpt lat="45.187867" lon="5.670896">
        <ele>402.66</ele>
      </trkpt>
      <trkpt lat="45.188168" lon="5.670972">
        <ele>398.1</ele>
      </trkpt>
      <trkpt lat="45.188468" lon="5.671049">
        <ele>397.54</ele>
      </trkpt>
      <trkpt lat="45.188621" lon="5.671038">
        <ele>397.67</ele>
      </trkpt>
      <trkpt lat="45.188737" lon="5.671011">
        <ele>397.22</ele>
      </trkpt>
      <trkpt lat="45.188832" lon="5.671035">
        <ele>395.8</ele>
      </trkpt>
      <trkpt lat="45.189196" lon="5.670831">
        <ele>389.86</ele>
      </trkpt>
      <trkpt lat="45.189337" lon="5.670652">
        <ele>384.98</ele>
      </trkpt>
      <trkpt lat="45.189533" lon="5.67021">
        <ele>381.78</ele>
      </trkpt>
      <trkpt lat="45.189706" lon="5.670013">
        <ele>380.96</ele>
      </trkpt>
      <trkpt lat="45.189835" lon="5.669927">
        <ele>380.27</ele>
      </trkpt>
      <trkpt lat="45.189975" lon="5.669863">
        <ele>378.71</ele>
      </trkpt>
      <trkpt lat="45.190141" lon="5.669842">
        <ele>374.28</ele>
      </trkpt>
      <trkpt lat="45.19036" lon="5.669701">
        <ele>370.73</ele>
      </trkpt>
      <trkpt lat="45.190415" lon="5.669543">
        <ele>368.87</ele>
      </trkpt>
      <trkpt lat="45.190489" lon="5.669299">
        <ele>362.11</ele>
      </trkpt>
      <trkpt lat="45.190577" lon="5.669176">
        <ele>358.52</ele>
      </trkpt>
      <trkpt lat="45.190674" lon="5.668995">
        <ele>357.6</ele>
      </trkpt>
      <trkpt lat="45.190753" lon="5.668809">
        <ele>355.13</ele>
      </trkpt>
      <trkpt lat="45.190765" lon="5.668557">
        <ele>354.5</ele>
      </trkpt>
      <trkpt lat="45.190874" lon="5.668359">
        <ele>350.98</ele>
      </trkpt>
      <trkpt lat="45.190957" lon="5.667997">
        <ele>349.54</ele>
      </trkpt>
      <trkpt lat="45.190997" lon="5.667874">
        <ele>349.8</ele>
      </trkpt>
      <trkpt lat="45.191125" lon="5.667372">
        <ele>345.29</ele>
      </trkpt>
      <trkpt lat="45.191233" lon="5.667171">
        <ele>343.05</ele>
      </trkpt>
      <trkpt lat="45.19132" lon="5.666977">
        <ele>343.51</ele>
      </trkpt>
      <trkpt lat="45.191473" lon="5.666823">
        <ele>341.78</ele>
      </trkpt>
      <trkpt lat="45.191626" lon="5.666709">
        <ele>342.4</ele>
      </trkpt>
      <trkpt lat="45.191879" lon="5.666576">
        <ele>345.37</ele>
      </trkpt>
      <trkpt lat="45.191948" lon="5.666506">
        <ele>346.7</ele>
      </trkpt>
      <trkpt lat="45.192078" lon="5.666357">
        <ele>347.32</ele>
      </trkpt>
      <trkpt lat="45.192223" lon="5.666217">
        <ele>349.62</ele>
      </trkpt>
      <trkpt lat="45.192334" lon="5.66618">
        <ele>350.12</ele>
      </trkpt>
      <trkpt lat="45.192374" lon="5.666134">
        <ele>351.25</ele>
      </trkpt>
      <trkpt lat="45.192528" lon="5.66588">
        <ele>356.03</ele>
      </trkpt>
      <trkpt lat="45.192623" lon="5.66577">
        <ele>355.48</ele>
      </trkpt>
      <trkpt lat="45.192678" lon="5.665625">
        <ele>355.42</ele>
      </trkpt>
      <trkpt lat="45.192779" lon="5.665246">
        <ele>354.87</ele>
      </trkpt>
      <trkpt lat="45.192783" lon="5.665094">
        <ele>356.28</ele>
      </trkpt>
      <trkpt lat="45.192729" lon="5.664929">
        <ele>357.33</ele>
      </trkpt>
      <trkpt lat="45.192659" lon="5.664758">
        <ele>354.92</ele>
      </trkpt>
      <trkpt lat="45.192627" lon="5.66447">
        <ele>352.44</ele>
      </trkpt>
      <trkpt lat="45.192654" lon="5.664354">
        <ele>350.81</ele>
      </trkpt>
      <trkpt lat="45.192728" lon="5.664246">
        <ele>348.93</ele>
      </trkpt>
      <trkpt lat="45.192812" lon="5.664206">
        <ele>347.61</ele>
      </trkpt>
      <trkpt lat="45.192984" lon="5.664172">
        <ele>348.03</ele>
      </trkpt>
      <trkpt lat="45.19307" lon="5.664137">
        <ele>348.94</ele>
      </trkpt>
      <trkpt lat="45.193108" lon="5.664088">
        <ele>350.1</ele>
      </trkpt>
      <trkpt lat="45.193131" lon="5.664">
        <ele>351.89</ele>
      </trkpt>
      <trkpt lat="45.193178" lon="5.663701">
        <ele>355.14</ele>
      </trkpt>
      <trkpt lat="45.193225" lon="5.663402">
        <ele>356.34</ele>
      </trkpt>
      <trkpt lat="45.193266" lon="5.663334">
        <ele>355.99</ele>
      </trkpt>
      <trkpt lat="45.193417" lon="5.663206">
        <ele>356.1</ele>
      </trkpt>
      <trkpt lat="45.19348" lon="5.663008">
        <ele>358.26</ele>
      </trkpt>
      <trkpt lat="45.193522" lon="5.662799">
        <ele>361.22</ele>
      </trkpt>
      <trkpt lat="45.19354" lon="5.662387">
        <ele>368.14</ele>
      </trkpt>
      <trkpt lat="45.193535" lon="5.662254">
        <ele>371.27</ele>
      </trkpt>
      <trkpt lat="45.193674" lon="5.662209">
        <ele>371.15</ele>
      </trkpt>
      <trkpt lat="45.193678" lon="5.66226">
        <ele>369.99</ele>
      </trkpt>
      <trkpt lat="45.193718" lon="5.662888">
        <ele>355.61</ele>
      </trkpt>
      <trkpt lat="45.19386" lon="5.663307">
        <ele>344.12</ele>
      </trkpt>
      <trkpt lat="45.19396" lon="5.66367">
        <ele>337.74</ele>
      </trkpt>
      <trkpt lat="45.194048" lon="5.663867">
        <ele>334.47</ele>
      </trkpt>
      <trkpt lat="45.194122" lon="5.664056">
        <ele>329.83</ele>
      </trkpt>
      <trkpt lat="45.194377" lon="5.664357">
        <ele>315.69</ele>
      </trkpt>
      <trkpt lat="45.194421" lon="5.66439">
        <ele>314.22</ele>
      </trkpt>
      <trkpt lat="45.194557" lon="5.664637">
        <ele>301.1</ele>
      </trkpt>
      <trkpt lat="45.194633" lon="5.664841">
        <ele>290.06</ele>
      </trkpt>
      <trkpt lat="45.194508" lon="5.664897">
        <ele>292.88</ele>
      </trkpt>
      <trkpt lat="45.194426" lon="5.664921">
        <ele>291.9</ele>
      </trkpt>
      <trkpt lat="45.194377" lon="5.665013">
        <ele>287.19</ele>
      </trkpt>
      <trkpt lat="45.194351" lon="5.665037">
        <ele>285.85</ele>
      </trkpt>
      <trkpt lat="45.194321" lon="5.665047">
        <ele>285.28</ele>
      </trkpt>
      <trkpt lat="45.194294" lon="5.665081">
        <ele>283.74</ele>
      </trkpt>
      <trkpt lat="45.194128" lon="5.665259">
        <ele>275.96</ele>
      </trkpt>
      <trkpt lat="45.193899" lon="5.665568">
        <ele>263.01</ele>
      </trkpt>
      <trkpt lat="45.193786" lon="5.665764">
        <ele>258.42</ele>
      </trkpt>
      <trkpt lat="45.193672" lon="5.665997">
        <ele>255.46</ele>
      </trkpt>
      <trkpt lat="45.19368" lon="5.666287">
        <ele>252.92</ele>
      </trkpt>
      <trkpt lat="45.193684" lon="5.66645">
        <ele>251.17</ele>
      </trkpt>
      <trkpt lat="45.193571" lon="5.666534">
        <ele>249.75</ele>
      </trkpt>
      <trkpt lat="45.19356" lon="5.666569">
        <ele>249.51</ele>
      </trkpt>
      <trkpt lat="45.193875" lon="5.666893">
        <ele>244.92</ele>
      </trkpt>
      <trkpt lat="45.194048" lon="5.666986">
        <ele>239.76</ele>
      </trkpt>
      <trkpt lat="45.194149" lon="5.666962">
        <ele>236.8</ele>
      </trkpt>
      <trkpt lat="45.194186" lon="5.666899">
        <ele>236.45</ele>
      </trkpt>
      <trkpt lat="45.194255" lon="5.666938">
        <ele>233.65</ele>
      </trkpt>
      <trkpt lat="45.19432" lon="5.666952">
        <ele>230.89</ele>
      </trkpt>
      <trkpt lat="45.194338" lon="5.666956">
        <ele>230.13</ele>
      </trkpt>
      <trkpt lat="45.19442" lon="5.666974">
        <ele>227.4</ele>
      </trkpt>
      <trkpt lat="45.194547" lon="5.667041">
        <ele>223.58</ele>
      </trkpt>
      <trkpt lat="45.194577" lon="5.667074">
        <ele>222.57</ele>
      </trkpt>
      <trkpt lat="45.194735" lon="5.667332">
        <ele>217.32</ele>
      </trkpt>
      <trkpt lat="45.194745" lon="5.667378">
        <ele>216.81</ele>
      </trkpt>
      <trkpt lat="45.194868" lon="5.667634">
        <ele>213.5</ele>
      </trkpt>
      <trkpt lat="45.194904" lon="5.667751">
        <ele>211.95</ele>
      </trkpt>
      <trkpt lat="45.194923" lon="5.667934">
        <ele>210.45</ele>
      </trkpt>
      <trkpt lat="45.19495" lon="5.668078">
        <ele>209.06</ele>
      </trkpt>
      <trkpt lat="45.195031" lon="5.6682">
        <ele>207.83</ele>
      </trkpt>
      <trkpt lat="45.195073" lon="5.668247">
        <ele>207.54</ele>
      </trkpt>
      <trkpt lat="45.195196" lon="5.668349">
        <ele>207</ele>
      </trkpt>
      <trkpt lat="45.195227" lon="5.668396">
        <ele>207</ele>
      </trkpt>
      <trkpt lat="45.19531" lon="5.668589">
        <ele>207</ele>
      </trkpt>
      <trkpt lat="45.195594" lon="5.66931">
        <ele>206</ele>
      </trkpt>
      <trkpt lat="45.195627" lon="5.669973">
        <ele>206</ele>
      </trkpt>
      <trkpt lat="45.195663" lon="5.670474">
        <ele>205.91</ele>
      </trkpt>
      <trkpt lat="45.195555" lon="5.670502">
        <ele>205.02</ele>
      </trkpt>
      <trkpt lat="45.195455" lon="5.670829">
        <ele>205.11</ele>
      </trkpt>
      <trkpt lat="45.195389" lon="5.67089">
        <ele>205.28</ele>
      </trkpt>
      <trkpt lat="45.195364" lon="5.67093">
        <ele>205.58</ele>
      </trkpt>
      <trkpt lat="45.195435" lon="5.67113">
        <ele>206</ele>
      </trkpt>
      <trkpt lat="45.195448" lon="5.671223">
        <ele>206</ele>
      </trkpt>
      <trkpt lat="45.19543" lon="5.671425">
        <ele>206</ele>
      </trkpt>
      <trkpt lat="45.195439" lon="5.671539">
        <ele>206</ele>
      </trkpt>
      <trkpt lat="45.195467" lon="5.67166">
        <ele>206</ele>
      </trkpt>
      <trkpt lat="45.195612" lon="5.671941">
        <ele>206</ele>
      </trkpt>
      <trkpt lat="45.195687" lon="5.672193">
        <ele>206</ele>
      </trkpt>
      <trkpt lat="45.195652" lon="5.672293">
        <ele>206</ele>
      </trkpt>
      <trkpt lat="45.195556" lon="5.672442">
        <ele>206</ele>
      </trkpt>
      <trkpt lat="45.195443" lon="5.672385">
        <ele>206</ele>
      </trkpt>
    </trkseg>
  </trk>
</gpx>
